GLOBALSTAR M045         
1 25676U 99019A   24348.61237522 -.00000081  00000+0  10883-3 0  9995
2 25676  51.9958 114.1925 0001073 135.8982 236.9715 12.27053240170619
GLOBALSTAR M019         
1 25677U 99019B   24349.09665321  .00000083  00000+0  18047-2 0  9991
2 25677  51.9863 230.1560 0001182   9.9875 138.1795 12.13868290162854
GLOBALSTAR M044         
1 25678U 99019C   24349.20232359 -.00000057  00000+0  36953-3 0  9995
2 25678  51.9935 158.0791 0007464  53.6094 117.9359 11.90245411149277
GLOBALSTAR M042         
1 25679U 99019D   24348.99277160 -.00000058  00000+0  32034-3 0  9997
2 25679  51.9991 213.7606 0001826 288.2067 218.8844 12.22074759162687
GLOBALSTAR M025         
1 25770U 99031A   24348.04273877 -.00000035  00000+0  99355-3 0  9994
2 25770  51.9797 230.4897 0001204 143.0604 357.6546 11.22557749460806
GLOBALSTAR M049         
1 25771U 99031B   24349.10236895 -.00000053  00000+0  41690-3 0  9991
2 25771  51.9869 253.4961 0004380  62.7190 297.4052 11.12111675 96833
GLOBALSTAR M047         
1 25772U 99031C   24348.79139309 -.00000058  00000+0  32061-3 0  9995
2 25772  51.9838 268.8837 0016138 307.6705  52.2637 11.31925648124886
GLOBALSTAR M052         
1 25773U 99031D   24348.51180663 -.00000058  00000+0  26178-3 0  9997
2 25773  51.9897   6.1206 0002535 221.1999 309.2943 11.15056046457799
